GLOBALSTAR M084         
1 38040U 11080A   24207.77687983 -.00000071  00000+0  18336-3 0  9997
2 38040  52.0027 322.1875 0000910  96.2247  68.4919 12.62264640581724
GLOBALSTAR M080         
1 38041U 11080B   24207.48659705 -.00000084  00000+0  10861-3 0  9996
2 38041  52.0082 324.5628 0000827  79.1347 326.1239 12.62263085581671
GLOBALSTAR M082         
1 38042U 11080C   24207.68494831 -.00000073  00000+0  17092-3 0  9997
2 38042  52.0075 279.3723 0000875 163.4280   3.5282 12.62264310582434
GLOBALSTAR M092         
1 38043U 11080D   24207.02202135 -.00000069  00000+0  19432-3 0  9995
2 38043  52.0103  11.7462 0000963  92.8044  60.4565 12.62264230580633
GLOBALSTAR M090         
1 38044U 11080E   24207.70634784 -.00000073  00000+0  17229-3 0  9997
2 38044  51.9883 273.5370 0000578 156.2570 347.5842 12.62265311582421
GLOBALSTAR M086         
1 38045U 11080F   24207.23403787 -.00000082  00000+0  12150-3 0  9991
2 38045  51.9894 275.4996 0000438 315.0474  82.2812 12.62264748582379
GLOBALSTAR M097         
1 39072U 13005A   24207.41115840 -.00000108  00000+0 -22202-4 0  9991
2 39072  52.0020 189.1757 0000177 299.0330  61.0519 12.62269124529622
GLOBALSTAR M093         
1 39073U 13005B   24207.85935102 -.00000092  00000+0  65403-4 0  9992
2 39073  51.9786 181.6330 0000307 296.4958  63.5877 12.62276223529673
